[{"OBJECT_NAME":"STARLINK-32085","OBJECT_ID":"2024-086D","EPOCH":"2025-12-12T06:42:03.381984","MEAN_MOTION":15.27570819,"ECCENTRICITY":7.079e-5,"INCLINATION":42.9975,"RA_OF_ASC_NODE":193.5631,"ARG_OF_PERICENTER":274.7884,"MEAN_ANOMALY":85.2887,"EPHEMERIS_TYPE":0,"CLASSIFICATION_TYPE":"U","NORAD_CAT_ID":59685,"ELEMENT_SET_NO":999,"REV_AT_EPOCH":9074,"BSTAR":-6.626897e-6,"MEAN_MOTION_DOT":-4.44e-6,"MEAN_MOTION_DDOT":0},{"OBJECT_NAME":"STARLINK-32100","OBJECT_ID":"2024-086E","EPOCH":"2025-12-12T05:38:54.201120","MEAN_MOTION":15.27538286,"ECCENTRICITY":3.558e-5,"INCLINATION":42.9995,"RA_OF_ASC_NODE":175.6857,"ARG_OF_PERICENTER":280.6318,"MEAN_ANOMALY":79.4493,"EPHEMERIS_TYPE":0,"CLASSIFICATION_TYPE":"U","NORAD_CAT_ID":59686,"ELEMENT_SET_NO":999,"REV_AT_EPOCH":9094,"BSTAR":-0.00025056313,"MEAN_MOTION_DOT":-7.141e-5,"MEAN_MOTION_DDOT":0},{"OBJECT_NAME":"STARLINK-32089","OBJECT_ID":"2024-086F","EPOCH":"2025-12-12T00:03:13.136832","MEAN_MOTION":15.27579438,"ECCENTRICITY":8.839e-5,"INCLINATION":42.998,"RA_OF_ASC_NODE":194.9244,"ARG_OF_PERICENTER":274.2249,"MEAN_ANOMALY":85.8501,"EPHEMERIS_TYPE":0,"CLASSIFICATION_TYPE":"U","NORAD_CAT_ID":59687,"ELEMENT_SET_NO":999,"REV_AT_EPOCH":9070,"BSTAR":0.00019774324,"MEAN_MOTION_DOT":5.183e-5,"MEAN_MOTION_DDOT":0},{"OBJECT_NAME":"STARLINK-32103","OBJECT_ID":"2024-086G","EPOCH":"2025-12-12T06:20:05.255808","MEAN_MOTION":15.27577566,"ECCENTRICITY":9.451e-5,"INCLINATION":43.003,"RA_OF_ASC_NODE":183.0693,"ARG_OF_PERICENTER":273.6496,"MEAN_ANOMALY":86.4248,"EPHEMERIS_TYPE":0,"CLASSIFICATION_TYPE":"U","NORAD_CAT_ID":59688,"ELEMENT_SET_NO":999,"REV_AT_EPOCH":9086,"BSTAR":3.4608007e-5,"MEAN_MOTION_DOT":6.9e-6,"MEAN_MOTION_DDOT":0},{"OBJECT_NAME":"STARLINK-32105","OBJECT_ID":"2024-086H","EPOCH":"2025-12-11T23:53:58.070400","MEAN_MOTION":15.27579992,"ECCENTRICITY":9.42e-5,"INCLINATION":42.9996,"RA_OF_ASC_NODE":194.8763,"ARG_OF_PERICENTER":263.8717,"MEAN_ANOMALY":96.2027,"EPHEMERIS_TYPE":0,"CLASSIFICATION_TYPE":"U","NORAD_CAT_ID":59689,"ELEMENT_SET_NO":999,"REV_AT_EPOCH":9070,"BSTAR":-3.709e-6,"MEAN_MOTION_DOT":-3.64e-6,"MEAN_MOTION_DDOT":0},{"OBJECT_NAME":"STARLINK-32106","OBJECT_ID":"2024-086J","EPOCH":"2025-12-12T06:54:19.905696","MEAN_MOTION":15.27579493,"ECCENTRICITY":0.00012004,"INCLINATION":43.0032,"RA_OF_ASC_NODE":185.8469,"ARG_OF_PERICENTER":263.3971,"MEAN_ANOMALY":96.6744,"EPHEMERIS_TYPE":0,"CLASSIFICATION_TYPE":"U","NORAD_CAT_ID":59690,"ELEMENT_SET_NO":999,"REV_AT_EPOCH":9083,"BSTAR":3.1870488e-5,"MEAN_MOTION_DOT":6.15e-6,"MEAN_MOTION_DDOT":0},{"OBJECT_NAME":"STARLINK-32090","OBJECT_ID":"2024-086K","EPOCH":"2025-12-11T23:34:58.463904","MEAN_MOTION":15.27580504,"ECCENTRICITY":9.13e-5,"INCLINATION":43.0004,"RA_OF_ASC_NODE":199.0935,"ARG_OF_PERICENTER":276.7429,"MEAN_ANOMALY":83.3319,"EPHEMERIS_TYPE":0,"CLASSIFICATION_TYPE":"U","NORAD_CAT_ID":59691,"ELEMENT_SET_NO":999,"REV_AT_EPOCH":9065,"BSTAR":5.5582e-6,"MEAN_MOTION_DOT":-1.09e-6,"MEAN_MOTION_DDOT":0},{"OBJECT_NAME":"STARLINK-32088","OBJECT_ID":"2024-086M","EPOCH":"2025-12-11T21:40:29.714016","MEAN_MOTION":15.27585286,"ECCENTRICITY":0.000143,"INCLINATION":43.0012,"RA_OF_ASC_NODE":188.1168,"ARG_OF_PERICENTER":258.3179,"MEAN_ANOMALY":101.7512,"EPHEMERIS_TYPE":0,"CLASSIFICATION_TYPE":"U","NORAD_CAT_ID":59693,"ELEMENT_SET_NO":999,"REV_AT_EPOCH":9077,"BSTAR":-3.8355e-5,"MEAN_MOTION_DOT":-1.318e-5,"MEAN_MOTION_DDOT":0},{"OBJECT_NAME":"STARLINK-32107","OBJECT_ID":"2024-086N","EPOCH":"2025-12-12T07:07:57.883008","MEAN_MOTION":15.27571806,"ECCENTRICITY":8.717e-5,"INCLINATION":43.0001,"RA_OF_ASC_NODE":193.6997,"ARG_OF_PERICENTER":270.0444,"MEAN_ANOMALY":90.0308,"EPHEMERIS_TYPE":0,"CLASSIFICATION_TYPE":"U","NORAD_CAT_ID":59694,"ELEMENT_SET_NO":999,"REV_AT_EPOCH":9074,"BSTAR":-3.248091e-5,"MEAN_MOTION_DOT":-1.155e-5,"MEAN_MOTION_DDOT":0},{"OBJECT_NAME":"STARLINK-32104","OBJECT_ID":"2024-086P","EPOCH":"2025-12-12T07:06:47.342592","MEAN_MOTION":15.27574349,"ECCENTRICITY":0.00011697,"INCLINATION":43.0003,"RA_OF_ASC_NODE":190.1566,"ARG_OF_PERICENTER":276.2393,"MEAN_ANOMALY":83.8326,"EPHEMERIS_TYPE":0,"CLASSIFICATION_TYPE":"U","NORAD_CAT_ID":59695,"ELEMENT_SET_NO":999,"REV_AT_EPOCH":9078,"BSTAR":-7.6632337e-5,"MEAN_MOTION_DOT":-2.37e-5,"MEAN_MOTION_DDOT":0},{"OBJECT_NAME":"STARLINK-32094","OBJECT_ID":"2024-086Q","EPOCH":"2025-12-11T23:22:43.419360","MEAN_MOTION":15.27577487,"ECCENTRICITY":0.0001256,"INCLINATION":42.9983,"RA_OF_ASC_NODE":195.575,"ARG_OF_PERICENTER":276.3283,"MEAN_ANOMALY":83.7426,"EPHEMERIS_TYPE":0,"CLASSIFICATION_TYPE":"U","NORAD_CAT_ID":59696,"ELEMENT_SET_NO":999,"REV_AT_EPOCH":9069,"BSTAR":0.00013128,"MEAN_MOTION_DOT":3.352e-5,"MEAN_MOTION_DDOT":0},{"OBJECT_NAME":"STARLINK-32099","OBJECT_ID":"2024-086R","EPOCH":"2025-12-11T23:59:30.880608","MEAN_MOTION":15.27597559,"ECCENTRICITY":0.0001584,"INCLINATION":43.002,"RA_OF_ASC_NODE":194.9036,"ARG_OF_PERICENTER":270.3407,"MEAN_ANOMALY":89.7263,"EPHEMERIS_TYPE":0,"CLASSIFICATION_TYPE":"U","NORAD_CAT_ID":59697,"ELEMENT_SET_NO":999,"REV_AT_EPOCH":9070,"BSTAR":-1.0525e-5,"MEAN_MOTION_DOT":-5.52e-6,"MEAN_MOTION_DDOT":0},{"OBJECT_NAME":"STARLINK-32096","OBJECT_ID":"2024-086S","EPOCH":"2025-12-12T06:36:29.992896","MEAN_MOTION":15.27571708,"ECCENTRICITY":0.00012539,"INCLINATION":43.0055,"RA_OF_ASC_NODE":193.532,"ARG_OF_PERICENTER":270.2791,"MEAN_ANOMALY":89.7917,"EPHEMERIS_TYPE":0,"CLASSIFICATION_TYPE":"U","NORAD_CAT_ID":59698,"ELEMENT_SET_NO":999,"REV_AT_EPOCH":9074,"BSTAR":-0.0001159064,"MEAN_MOTION_DOT":-3.449e-5,"MEAN_MOTION_DDOT":0},{"OBJECT_NAME":"STARLINK-32102","OBJECT_ID":"2024-086T","EPOCH":"2025-12-12T06:25:24.099456","MEAN_MOTION":15.27576933,"ECCENTRICITY":8.959e-5,"INCLINATION":42.9987,"RA_OF_ASC_NODE":193.4721,"ARG_OF_PERICENTER":23.4297,"MEAN_ANOMALY":336.6595,"EPHEMERIS_TYPE":0,"CLASSIFICATION_TYPE":"U","NORAD_CAT_ID":59699,"ELEMENT_SET_NO":999,"REV_AT_EPOCH":9074,"BSTAR":0.0011349184,"MEAN_MOTION_DOT":0.00031097,"MEAN_MOTION_DDOT":0},{"OBJECT_NAME":"STARLINK-32092","OBJECT_ID":"2024-086U","EPOCH":"2025-12-12T06:51:18.541728","MEAN_MOTION":15.27571221,"ECCENTRICITY":7.818e-5,"INCLINATION":42.9982,"RA_OF_ASC_NODE":193.609,"ARG_OF_PERICENTER":281.1089,"MEAN_ANOMALY":78.9675,"EPHEMERIS_TYPE":0,"CLASSIFICATION_TYPE":"U","NORAD_CAT_ID":59700,"ELEMENT_SET_NO":999,"REV_AT_EPOCH":9074,"BSTAR":-2.4189153e-5,"MEAN_MOTION_DOT":-9.27e-6,"MEAN_MOTION_DDOT":0},{"OBJECT_NAME":"STARLINK-32093","OBJECT_ID":"2024-086V","EPOCH":"2025-12-11T21:22:39.635328","MEAN_MOTION":15.27576375,"ECCENTRICITY":7.26e-5,"INCLINATION":42.9992,"RA_OF_ASC_NODE":195.8045,"ARG_OF_PERICENTER":275.9194,"MEAN_ANOMALY":84.1574,"EPHEMERIS_TYPE":0,"CLASSIFICATION_TYPE":"U","NORAD_CAT_ID":59701,"ELEMENT_SET_NO":999,"REV_AT_EPOCH":9068,"BSTAR":-1.0042e-5,"MEAN_MOTION_DOT":-5.38e-6,"MEAN_MOTION_DDOT":0}]
