STARLINK-32085          
1 59685U 24086D   25346.27920581 -.00000444  00000+0 -66269-5 0  9994
2 59685  42.9975 193.5631 0000707 274.7884  85.2887 15.27570819 90746
STARLINK-32100          
1 59686U 24086E   25346.23534955 -.00007141  00000+0 -25056-3 0  9995
2 59686  42.9995 175.6857 0000355 280.6318  79.4493 15.27538286 90949
STARLINK-32089          
1 59687U 24086F   25346.00223538  .00005183  00000+0  19774-3 0  9995
2 59687  42.9980 194.9244 0000883 274.2249  85.8501 15.27579438 90705
STARLINK-32103          
1 59688U 24086G   25346.26394972  .00000690  00000+0  34608-4 0  9997
2 59688  43.0030 183.0693 0000945 273.6496  86.4248 15.27577566 90869
STARLINK-32105          
1 59689U 24086H   25345.99581100 -.00000364  00000+0 -37090-5 0  9997
2 59689  42.9996 194.8763 0000942 263.8717  96.2027 15.27579992 90703
STARLINK-32106          
1 59690U 24086J   25346.28773039  .00000615  00000+0  31870-4 0  9992
2 59690  43.0032 185.8469 0001200 263.3971  96.6744 15.27579493 90836
STARLINK-32090          
1 59691U 24086K   25345.98262111 -.00000109  00000+0  55582-5 0  9999
2 59691  43.0004 199.0935 0000913 276.7429  83.3319 15.27580504 90653
STARLINK-32088          
1 59693U 24086M   25345.90312169 -.00001318  00000+0 -38355-4 0  9994
2 59693  43.0012 188.1168 0001430 258.3179 101.7512 15.27585286 90779
STARLINK-32107          
1 59694U 24086N   25346.29719772 -.00001155  00000+0 -32481-4 0  9992
2 59694  43.0001 193.6997 0000871 270.0444  90.0308 15.27571806 90746
STARLINK-32104          
1 59695U 24086P   25346.29638128 -.00002370  00000+0 -76632-4 0  9994
2 59695  43.0003 190.1566 0001169 276.2393  83.8326 15.27574349 90784
STARLINK-32094          
1 59696U 24086Q   25345.97411365  .00003352  00000+0  13128-3 0  9990
2 59696  42.9983 195.5750 0001256 276.3283  83.7426 15.27577487 90696
STARLINK-32099          
1 59697U 24086R   25345.99966297 -.00000552  00000+0 -10525-4 0  9992
2 59697  43.0020 194.9036 0001584 270.3407  89.7263 15.27597559 90706
STARLINK-32096          
1 59698U 24086S   25346.27534714 -.00003449  00000+0 -11591-3 0  9991
2 59698  43.0055 193.5320 0001253 270.2791  89.7917 15.27571708 90742
STARLINK-32102          
1 59699U 24086T   25346.26764004  .00031097  00000+0  11349-2 0  9996
2 59699  42.9987 193.4721 0000895  23.4297 336.6595 15.27576933 90740
STARLINK-32092          
1 59700U 24086U   25346.28563127 -.00000927  00000+0 -24189-4 0  9992
2 59700  42.9982 193.6090 0000781 281.1089  78.9675 15.27571221 90745
STARLINK-32093          
1 59701U 24086V   25345.89073652 -.00000538  00000+0 -10042-4 0  9999
2 59701  42.9992 195.8045 0000726 275.9194  84.1574 15.27576375 90683
